{
  "type": "FeatureCollection",
  "features": [
    {
      "type": "Feature",
      "properties": {
        "norad_id": 56564,
        "name": "BEIDOU-3 G4 (C62)",
        "group": "beidou",
        "lat": -0.8142517888513717,
        "lon": -136.39660847599723,
        "alt_km": 35778.6808904423,
        "timestamp": "2025-12-14T22:38:41.023560+00:00",
        "meta_object_name": "BEIDOU-3 G4 (C62)",
        "meta_object_id": "2023-066A",
        "meta_epoch": "2025-12-14T07:19:54.939936",
        "meta_mean_motion": 1.0027173,
        "meta_eccentricity": 0.00028443,
        "meta_inclination": 0.8112,
        "meta_ra_of_asc_node": 302.1876,
        "meta_arg_of_pericenter": 230.4527,
        "meta_mean_anomaly": 180.6283,
        "meta_ephemeris_type": 0,
        "meta_classification_type": "U",
        "meta_norad_cat_id": 56564,
        "meta_element_set_no": 999,
        "meta_rev_at_epoch": 954,
        "meta_bstar": 0,
        "meta_mean_motion_dot": -9.3e-07,
        "meta_mean_motion_ddot": 0,
        "tle_line1": "1 56564U 23066A   25348.30549699 -.00000093  00000+0  00000+0 0  9991",
        "tle_line2": "2 56564   0.8112 302.1876 0002844 230.4527 180.6283  1.00271730  9545"
      },
      "geometry": {
        "type": "Point",
        "coordinates": [
          -136.39660847599723,
          -0.8142517888513717
        ]
      }
    },
    {
      "type": "Feature",
      "properties": {
        "norad_id": 58654,
        "name": "BEIDOU-3 M28 (C50)",
        "group": "beidou",
        "lat": -45.48906836191355,
        "lon": -67.33269532299214,
        "alt_km": 21527.548295596112,
        "timestamp": "2025-12-14T22:38:41.023572+00:00",
        "meta_object_name": "BEIDOU-3 M28 (C50)",
        "meta_object_id": "2023-207A",
        "meta_epoch": "2025-12-14T01:10:25.688352",
        "meta_mean_motion": 1.86229806,
        "meta_eccentricity": 0.00024295,
        "meta_inclination": 55.5856,
        "meta_ra_of_asc_node": 68.557,
        "meta_arg_of_pericenter": 270.0731,
        "meta_mean_anomaly": 89.9173,
        "meta_ephemeris_type": 0,
        "meta_classification_type": "U",
        "meta_norad_cat_id": 58654,
        "meta_element_set_no": 999,
        "meta_rev_at_epoch": 1339,
        "meta_bstar": 0,
        "meta_mean_motion_dot": -8.3e-07,
        "meta_mean_motion_ddot": 0,
        "tle_line1": "1 58654U 23207A   25348.04890843 -.00000083  00000+0  00000+0 0  9990",
        "tle_line2": "2 58654  55.5856  68.5570 0002429 270.0731  89.9173  1.86229806 13397"
      },
      "geometry": {
        "type": "Point",
        "coordinates": [
          -67.33269532299214,
          -45.48906836191355
        ]
      }
    },
    {
      "type": "Feature",
      "properties": {
        "norad_id": 58655,
        "name": "BEIDOU-3 M26 (C48)",
        "group": "beidou",
        "lat": 12.717863312409971,
        "lon": 77.40710969495446,
        "alt_km": 21531.907614827793,
        "timestamp": "2025-12-14T22:38:41.023583+00:00",
        "meta_object_name": "BEIDOU-3 M26 (C48)",
        "meta_object_id": "2023-207B",
        "meta_epoch": "2025-12-13T07:25:48.468864",
        "meta_mean_motion": 1.86231261,
        "meta_eccentricity": 0.00038294,
        "meta_inclination": 55.587,
        "meta_ra_of_asc_node": 68.5683,
        "meta_arg_of_pericenter": 255.9601,
        "meta_mean_anomaly": 104.0159,
        "meta_ephemeris_type": 0,
        "meta_classification_type": "U",
        "meta_norad_cat_id": 58655,
        "meta_element_set_no": 999,
        "meta_rev_at_epoch": 1336,
        "meta_bstar": 0,
        "meta_mean_motion_dot": -7.9e-07,
        "meta_mean_motion_ddot": 0,
        "tle_line1": "1 58655U 23207B   25347.30958876 -.00000079  00000+0  00000+0 0  9995",
        "tle_line2": "2 58655  55.5870  68.5683 0003829 255.9601 104.0159  1.86231261 13360"
      },
      "geometry": {
        "type": "Point",
        "coordinates": [
          77.40710969495446,
          12.717863312409971
        ]
      }
    },
    {
      "type": "Feature",
      "properties": {
        "norad_id": 61186,
        "name": "BEIDOU-3 M25 (C47)",
        "group": "beidou",
        "lat": 37.03931825188381,
        "lon": 96.24505265577484,
        "alt_km": 21538.301337825298,
        "timestamp": "2025-12-14T22:38:41.023594+00:00",
        "meta_object_name": "BEIDOU-3 M25 (C47)",
        "meta_object_id": "2024-168B",
        "meta_epoch": "2025-12-13T09:51:38.613312",
        "meta_mean_motion": 1.86230198,
        "meta_eccentricity": 0.00054273,
        "meta_inclination": 54.6413,
        "meta_ra_of_asc_node": 308.6962,
        "meta_arg_of_pericenter": 297.8799,
        "meta_mean_anomaly": 246.8955,
        "meta_ephemeris_type": 0,
        "meta_classification_type": "U",
        "meta_norad_cat_id": 61186,
        "meta_element_set_no": 999,
        "meta_rev_at_epoch": 832,
        "meta_bstar": 0,
        "meta_mean_motion_dot": -9.7e-07,
        "meta_mean_motion_ddot": 0,
        "tle_line1": "1 61186U 24168B   25347.41086358 -.00000097  00000+0  00000+0 0  9994",
        "tle_line2": "2 61186  54.6413 308.6962 0005427 297.8799 246.8955  1.86230198  8320"
      },
      "geometry": {
        "type": "Point",
        "coordinates": [
          96.24505265577484,
          37.03931825188381
        ]
      }
    },
    {
      "type": "Feature",
      "properties": {
        "norad_id": 61187,
        "name": "BEIDOU-3 M27 (C49)",
        "group": "beidou",
        "lat": -54.545681345641356,
        "lon": -146.04430031687437,
        "alt_km": 21531.640429802777,
        "timestamp": "2025-12-14T22:38:41.023605+00:00",
        "meta_object_name": "BEIDOU-3 M27 (C49)",
        "meta_object_id": "2024-168C",
        "meta_epoch": "2025-12-13T04:47:06.571968",
        "meta_mean_motion": 1.86230336,
        "meta_eccentricity": 0.00023989,
        "meta_inclination": 54.6369,
        "meta_ra_of_asc_node": 308.6872,
        "meta_arg_of_pericenter": 337.1666,
        "meta_mean_anomaly": 200.7639,
        "meta_ephemeris_type": 0,
        "meta_classification_type": "U",
        "meta_norad_cat_id": 61187,
        "meta_element_set_no": 999,
        "meta_rev_at_epoch": 579,
        "meta_bstar": 0,
        "meta_mean_motion_dot": -9.6e-07,
        "meta_mean_motion_ddot": 0,
        "tle_line1": "1 61187U 24168C   25347.19938162 -.00000096  00000+0  00000+0 0  9998",
        "tle_line2": "2 61187  54.6369 308.6872 0002398 337.1666 200.7639  1.86230336  5796"
      },
      "geometry": {
        "type": "Point",
        "coordinates": [
          -146.04430031687437,
          -54.545681345641356
        ]
      }
    }
  ]
}